NORAD_CAT_ID,OBJECT_NAME,OBJECT_TYPE,EPOCH,MEAN_MOTION,ECCENTRICITY,INCLINATION,RA_OF_ASC_NODE,ARG_OF_PERICENTER,MEAN_ANOMALY,BSTAR,MEAN_MOTION_DOT,MEAN_MOTION_DDOT,TLE_LINE0,TLE_LINE1,TLE_LINE2,SEMIMAJOR_AXIS,PERIOD,APOGEE,PERIGEE,DECAYED
50815.0,STARLINK-3234,PAYLOAD,2022-05-21 06:00:00,15.08807533,0.0001853,53.2154,282.0508,41.8969,267.8217,0.004305,0.00068835,0.0,0 STARLINK-3234,1 50815U 22001N   22141.25001157  .00068835  00000-0  43050-2 0  9999,2 50815  53.2154 282.0508 0001853  41.8969 267.8217 15.08807533  1307,6917.98,95.44,541.127,538.563,0.0
50815.0,STARLINK-3234,PAYLOAD,2022-05-21 14:00:01,15.08863078,0.0002025,53.2155,280.5556,41.453,279.9121,-0.0031544,-0.00050174,0.0,0 STARLINK-3234,1 50815U 22001N   22141.58335648 -.00050174  00000-0 -31544-2 0  9994,2 50815  53.2155 280.5556 0002025  41.4530 279.9121 15.08863078  1300,6917.81,95.436,541.076,538.274,0.0
50815.0,STARLINK-3234,PAYLOAD,2022-05-21 22:00:00,15.08834644,0.0002117,53.2153,279.0598,37.5028,295.407,0.00034537,5.212e-05,0.0,0 STARLINK-3234,1 50815U 22001N   22141.91667824  .00005212  00000-0  34537-3 0  9992,2 50815  53.2153 279.0598 0002117  37.5028 295.4070 15.08834644  1300,6917.897,95.438,541.226,538.297,0.0
50815.0,STARLINK-3234,PAYLOAD,2022-05-22 06:00:00,15.08821809,0.0001937,53.2155,277.5616,42.2702,302.2307,0.0022067,0.00034989,0.0,0 STARLINK-3234,1 50815U 22001N   22142.25001157  .00034989  00000-0  22067-2 0  9998,2 50815  53.2155 277.5616 0001937  42.2702 302.2307 15.08821809 22220,6917.936,95.439,541.141,538.461,0.0
50815.0,STARLINK-3234,PAYLOAD,2022-05-22 14:00:01,15.08779228,0.0002117,53.2173,276.0749,39.3505,316.6852,0.0058168,0.0009336,0.0,0 STARLINK-3234,1 50815U 22001N   22142.58334491  .00093360  00000-0  58168-2 0  9993,2 50815  53.2173 276.0749 0002117  39.3505 316.6852 15.08779228 22276,6918.066,95.441,541.396,538.467,0.0
50815.0,STARLINK-3234,PAYLOAD,2022-05-22 22:00:01,15.08842301,0.0002151,53.2153,274.5703,37.5779,330.1729,-0.00035857,-5.991e-05,0.0,0 STARLINK-3234,1 50815U 22001N   22142.91668981 -.00005991  00000-0 -35857-3 0  9990,2 50815  53.2153 274.5703 0002151  37.5779 330.1729 15.08842301 22321,6917.873000000001,95.437,541.226,538.25,0.0
50815.0,STARLINK-3234,PAYLOAD,2022-05-23 14:00:01,15.08837799,0.0002122,53.2157,271.5774,41.3968,349.4623,-0.0022246,-0.00035518,0.0,0 STARLINK-3234,1 50815U 22001N   22143.58334491 -.00035518  00000-0 -22246-2 0  9995,2 50815  53.2157 271.5774 0002122  41.3968 349.4623 15.08837799  1307,6917.887,95.438,541.22,538.284,0.0
50815.0,STARLINK-3234,PAYLOAD,2022-05-23 22:00:01,15.088317000000002,0.0002099,53.2153,270.0809,36.6553,5.8484,-0.0031402,-0.00049909,0.0,0 STARLINK-3234,1 50815U 22001N   22143.91668981 -.00049909  00000-0 -31402-2 0  9999,2 50815  53.2153 270.0809 0002099  36.6553   5.8484 15.08831700  1300,6917.906,95.438,541.2230000000002,538.319,0.0
50815.0,STARLINK-3234,PAYLOAD,2022-05-24 06:00:02,15.08767458,0.0001836,53.2154,268.583,40.0474,14.0187,0.0040537,0.00064691,0.0,0 STARLINK-3234,1 50815U 22001N   22144.25002315  .00064691  00000-0  40537-2 0  9992,2 50815  53.2154 268.5830 0001836  40.0474  14.0187 15.08767458 22523,6918.102,95.442,541.237,538.697,0.0
50815.0,STARLINK-3234,PAYLOAD,2022-05-24 12:07:18,15.08806097,0.0001894,53.2162,267.4394,41.6397,318.4739,-0.00038083,-6.338e-05,0.0,0 STARLINK-3234,1 50815U 22001N   22144.50507186 -.00006338  00000-0 -38083-3 0  9996,2 50815  53.2162 267.4394 0001894  41.6397 318.4739 15.08806097 22561,6917.984,95.44,541.159,538.539,0.0
50815.0,STARLINK-3234,PAYLOAD,2022-05-24 13:42:41,15.08810482,0.0001962,53.2156,267.1406,49.9865,310.1299,-0.00035808,-5.978e-05,0.0,0 STARLINK-3234,1 50815U 22001N   22144.57131240 -.00005978  00000-0 -35808-3 0  9998,2 50815  53.2156 267.1406 0001962  49.9865 310.1299 15.08810482 21306,6917.971,95.439,541.193,538.4780000000002,0.0
50815.0,STARLINK-3234,PAYLOAD,2022-05-24 22:00:00,15.08847731,0.0002085,53.2151,265.5918,39.2421,37.8541,-3.2015e-05,-7.98e-06,0.0,0 STARLINK-3234,1 50815U 22001N   22144.91667824 -.00000798  00000-0 -32015-4 0  9991,2 50815  53.2151 265.5918 0002085  39.2421  37.8541 15.08847731 22624,6917.857,95.437,541.164,538.279,0.0
50815.0,STARLINK-3234,PAYLOAD,2022-05-25 14:00:01,15.08885998,0.0002041,53.2164,262.6037,40.4375,59.8644,-0.0034444,-0.0005476,0.0,0 STARLINK-3234,1 50815U 22001N   22145.58334491 -.00054760  00000-0 -34444-2 0  9990,2 50815  53.2164 262.6037 0002041  40.4375  59.8644 15.08885998  1309,6917.74,95.435,541.0169999999998,538.193,0.0
50815.0,STARLINK-3234,PAYLOAD,2022-05-25 22:00:00,15.08861616,0.0001965,53.2149,261.1022,37.2187,74.7206,-0.00069613,-0.00011357,0.0,0 STARLINK-3234,1 50815U 22001N   22145.91667824 -.00011357  00000-0 -69613-3 0  9998,2 50815  53.2149 261.1022 0001965  37.2187  74.7206 15.08861616  1300,6917.814,95.436,541.039,538.32,0.0
50815.0,STARLINK-3234,PAYLOAD,2022-05-26 06:00:00,15.08840176,0.0001737,53.215,259.6045,40.8345,82.7239,0.00043077,6.574e-05,0.0,0 STARLINK-3234,1 50815U 22001N   22146.25001157  .00006574  00000-0  43077-3 0  9996,2 50815  53.2150 259.6045 0001737  40.8345  82.7239 15.08840176 22825,6917.88,95.438,540.946,538.543,0.0
50815.0,STARLINK-3234,PAYLOAD,2022-05-26 13:24:14,15.08851449,0.0001693,53.2157,258.2187,35.6,324.5105,0.00036308,5.497e-05,0.0,0 STARLINK-3234,1 50815U 22001N   22146.55849910  .00005497  00000-0  36308-3 0  9998,2 50815  53.2157 258.2187 0001693  35.6000 324.5105 15.08851449 21604,6917.845,95.437,540.882,538.539,0.0
50815.0,STARLINK-3234,PAYLOAD,2022-05-26 22:00:00,15.08836179,0.0001859,53.2153,256.6151,32.0909,114.641,-0.0007462999999999,-0.00012145,0.0,0 STARLINK-3234,1 50815U 22001N   22146.91667824 -.00012145  00000-0 -74630-3 0  9990,2 50815  53.2153 256.6151 0001859  32.0909 114.6410 15.08836179 22922,6917.892,95.438,541.043,538.471,0.0
50815.0,STARLINK-3234,PAYLOAD,2022-05-27 14:00:01,15.08842268,0.0001934,53.215,253.6205,34.0371,135.8707,0.00015164,2.126e-05,0.0,0 STARLINK-3234,1 50815U 22001N   22147.58334491  .00002126  00000-0  15164-3 0  9998,2 50815  53.2150 253.6205 0001934  34.0371 135.8707 15.08842268  1304,6917.873000000001,95.437,541.076,538.401,0.0
50815.0,STARLINK-3234,PAYLOAD,2022-05-27 16:00:00,15.088301500000002,0.0001994,53.2152,253.2467,33.4378,229.3729,0.0021283,0.00033738,0.0,0 STARLINK-3234,1 50815U 22001N   22147.66667824  .00033738  00000-0  21283-2 0  9997,2 50815  53.2152 253.2467 0001994  33.4378 229.3729 15.08830150 23043,6917.91,95.438,541.155,538.396,0.0
50815.0,STARLINK-3234,PAYLOAD,2022-05-27 22:00:01,15.08876757,0.0001961,53.215,252.1234,33.5553,148.0087,-0.0041607,-0.00065967,0.0,0 STARLINK-3234,1 50815U 22001N   22147.91668981 -.00065967  00000-0 -41607-2 0  9993,2 50815  53.2150 252.1234 0001961  33.5553 148.0087 15.08876757  1303,6917.768,95.435,540.99,538.276,0.0
50815.0,STARLINK-3234,PAYLOAD,2022-05-28 06:00:02,15.0883107,0.0001875,53.2153,250.6258,39.87,153.3148,0.0026321,0.00041841,0.0,0 STARLINK-3234,1 50815U 22001N   22148.25002315  .00041841  00000-0  26321-2 0  9993,2 50815  53.2153 250.6258 0001875  39.8700 153.3148 15.08831070 23122,6917.908,95.438,541.07,538.476,0.0
50815.0,STARLINK-3234,PAYLOAD,2022-05-28 14:00:01,15.08863059,0.0002085,53.2154,249.1313,35.2045,169.52,-0.00151,-0.00024255,0.0,0 STARLINK-3234,1 50815U 22001N   22148.58334491 -.00024255  00000-0 -15100-2 0  9997,2 50815  53.2154 249.1313 0002085  35.2045 169.5200 15.08863059  1300,6917.81,95.436,541.117,538.2330000000002,0.0
50815.0,STARLINK-3234,PAYLOAD,2022-05-28 22:00:00,15.08874616,0.0001971,53.2155,247.6341,32.0346,184.3086,-0.0038205,-0.00060639,0.0,0 STARLINK-3234,1 50815U 22001N   22148.91667824 -.00060639  00000-0 -38205-2 0  9990,2 50815  53.2155 247.6341 0001971  32.0346 184.3086 15.08874616 23220,6917.775,95.435,541.003,538.276,0.0
50815.0,STARLINK-3234,PAYLOAD,2022-05-29 14:00:01,15.08843156,0.0002125,53.2158,244.6422,33.4221,206.1121,-0.0032997,-0.00052427,0.0,0 STARLINK-3234,1 50815U 22001N   22149.58334491 -.00052427  00000-0 -32997-2 0  9993,2 50815  53.2158 244.6422 0002125  33.4221 206.1121 15.08843156 23328,6917.871,95.437,541.206,538.266,0.0
50815.0,STARLINK-3234,PAYLOAD,2022-05-29 22:00:00,15.088187,0.0002131,53.2158,243.145,35.4524,215.6657,-0.0033203,-0.00052715,0.0,0 STARLINK-3234,1 50815U 22001N   22149.91667824 -.00052715  00000-0 -33203-2 0  9990,2 50815  53.2158 243.1450 0002131  35.4524 215.6657 15.08818700  1308,6917.945,95.439,541.285,538.336,0.0
50815.0,STARLINK-3234,PAYLOAD,2022-05-30 06:00:00,15.08779885,0.0002012,53.2161,241.6478,40.4087,222.2521,0.0048848,0.00078189,0.0,0 STARLINK-3234,1 50815U 22001N   22150.25001157  .00078189  00000-0  48848-2 0  9992,2 50815  53.2161 241.6478 0002012  40.4087 222.2521 15.08779885 23435,6918.064,95.441,541.321,538.5369999999998,0.0
50815.0,STARLINK-3234,PAYLOAD,2022-05-30 14:00:01,15.08818979,0.0002202,53.2159,240.1534,35.4342,238.7797,0.0010494,0.00016443,0.0,0 STARLINK-3234,1 50815U 22001N   22150.58334491  .00016443  00000-0  10494-2 0  9999,2 50815  53.2159 240.1534 0002202  35.4342 238.7797 15.08818979 23488,6917.945,95.439,541.3330000000002,538.286,0.0
50815.0,STARLINK-3234,PAYLOAD,2022-05-30 22:00:00,15.08850785,0.0002098,53.2158,238.6562,35.2878,250.4996,-0.0018038,-0.0002889,0.0,0 STARLINK-3234,1 50815U 22001N   22150.91667824 -.00028890  00000-0 -18038-2 0  9998,2 50815  53.2158 238.6562 0002098  35.2878 250.4996 15.08850785  1305,6917.847,95.437,541.164,538.261,0.0
50815.0,STARLINK-3234,PAYLOAD,2022-05-31 06:00:02,15.08838895,0.0001972,53.216,237.1591,39.8105,257.6285,0.0013544,0.00021332,0.0,0 STARLINK-3234,1 50815U 22001N   22151.25002315  .00021332  00000-0  13544-2 0  9993,2 50815  53.2160 237.1591 0001972  39.8105 257.6285 15.08838895  1305,6917.884,95.438,541.113,538.385,0.0
